#aV2011  2 20  0  0   .00000000      96 DD+AD WGS84 FIT  NGA
## 1624       .00000000   900.00000000 55612  .0000000000000
+   32     1  2  3  4  5  6  7  8  9 10 11 12 13 14 15 16 17
+         18 19 20 21 22 23 24 25 26 27 28 29 30 31 32  0  0
+          0  0  0  0  0  0  0  0  0  0  0  0  0  0  0  0  0
+          0  0  0  0  0  0  0  0  0  0  0  0  0  0  0  0  0
+          0  0  0  0  0  0  0  0  0  0  0  0  0  0  0  0  0
++         0  0  0  0  0  0  0  0  0  0  0  0  0  0  0  0  0
++         0  0  0  0  0  0  0  0  0  0  0  0  0  0  0  0  0
++         0  0  0  0  0  0  0  0  0  0  0  0  0  0  0  0  0
++         0  0  0  0  0  0  0  0  0  0  0  0  0  0  0  0  0
++         0  0  0  0  0  0  0  0  0  0  0  0  0  0  0  0  0
%c cc cc ccc ccc cccc cccc cccc cccc ccccc ccccc ccccc ccccc
%c cc cc ccc ccc cccc cccc cccc cccc ccccc ccccc ccccc ccccc
%f  0.0000000  0.000000000  0.00000000000  0.000000000000000
%f  0.0000000  0.000000000  0.00000000000  0.000000000000000
%i    0    0    0    0      0      0      0      0         0
%i    0    0    0    0      0      0      0      0         0
/*      NGA, ST. LOUIS,MO.                                  
/*   EPHEMERIS COMPUTED FROM  3 DAYS OF DATA                
/* CCCCCCCCCCCCCCCCCCCCCCCCCCCCCCCCCCCCCCCCCCCCCCCCCCCCCCCCC
/* CCCCCCCCCCCCCCCCCCCCCCCCCCCCCCCCCCCCCCCCCCCCCCCCCCCCCCCCC
*  2011  2 20  2  0   .00000000                                                 
P  1   8764.772924 -16304.782578  18881.128227   -209.723230                    
V  1   8184.394743  22860.904186  15982.134742      -.029545                    
P  2  -5274.227872  14838.956182  21382.569632    321.279100                    
V  2 -26441.056324  -6467.522741  -2515.795908       .020215                    
P  3   7224.069295 -23214.482627 -10707.905063    678.334572                    
V  3  10629.017326  -8536.105763  27018.963062       .051257                    
P  4 -18126.469536   8647.791611  17343.488145     40.352188                    
V  4 -21271.861791  -7171.363905 -18087.951388       .102606                    
P  5    438.047328  24805.702032   9314.581031   -117.444489                    
V  5  -6059.075668 -10619.907979  28606.403473      -.059163                    
P  6  12384.212493 -22265.976885  -6958.012480    -85.409039                    
V  6   8687.128839  -4570.076917  29608.258898      -.165614                    
P  7 -26055.518183  -5496.822004  -1492.664109      3.986027                    
V  7  -1289.553558  -2620.024643  31836.889364       .007530                    
P  8 -23911.011181    360.502651 -12109.707235      7.432689                    
V  8 -14062.830848  -5757.529127  27021.648141       .000927                    
P  9  15751.215469  14544.870955 -16228.266099     62.904343                    
V  9 -19374.035636  -2950.087226 -22189.398600       .024398                    
P 10 -10534.651037  14313.280834  19408.695210    -66.724314                    
V 10  -8084.813406 -23981.252779  13521.271929      -.011204                    
P 11 -16964.799467 -13038.777620 -16249.677194   -128.553110                    
V 11  20179.076067  -3057.631367 -18626.231944      -.029979                    
P 12  10966.289892  23453.016435   6351.827429    -25.434154                    
V 12     38.234515   8262.877283 -30566.826429       .032678                    
P 13 -18126.212582   -725.476520  19276.660470    281.818063                    
V 13  17782.607108 -17151.221394  15914.631986      -.013708                    
P 14  21344.664686 -14319.320174  -6253.738643    132.581835                    
V 14  -4491.358298   7133.992034 -31022.109616       .025863                    
P 15   4957.891811  16143.249643 -20450.131864   -149.919333                    
V 15 -18468.283020  18430.069976  10223.251175       .034460                    
P 16   2407.641991 -23414.062434  12045.092750   -151.993141                    
V 16   5943.784630  14297.826349  26960.987486      -.029131                    
P 17 -21299.162770  13679.830909  -7523.157747    183.301146                    
V 17   4958.946052  -8896.471371 -29937.410617       .004475                    
P 18  16573.717223   4197.858250 -20108.666879    122.453340                    
V 18   5908.909458  25565.441455   9688.367523       .020637                    
P 19    147.403952 -18178.459798 -19241.600386   -112.865915                    
V 19  19374.731221 -15166.654261  14806.128144      -.036907                    
P 20 -14323.458588 -20062.772718   9828.951066     48.663071                    
V 20   -929.632620 -13094.174758 -27595.684134      -.000130                    
P 21  26269.591245   5413.317304  -1649.636749   -125.165571                    
V 21   1654.547460   3719.372130  30619.077970      -.026591                    
P 22  13553.973697  -9097.935930 -20773.344023    153.060419                    
V 22   7755.993514  25757.194270  -6267.082101      -.007083                    
P 23 -10197.357759 -11164.120113  21823.530669    324.895449                    
V 23  19538.183260 -19657.562904  -1255.032974      -.023849                    
P 24 -17936.190691 -14985.883379 -12808.447267    366.926489                    
V 24  16284.716986   2383.786011 -25209.671232       .031945                    
P 25  16274.731424  11801.632826  17350.639764    -68.820217                    
V 25   4884.831534  21565.851161 -19225.837012      -.013267                    
P 26  -8155.630981  20590.467260 -14915.773346   -125.723393                    
V 26 -14435.171825  10940.419268  24344.023963      -.096740                    
P 27  10810.475548  14817.706509 -18650.200332    238.408172                    
V 27 -24717.090814  -3615.147038 -16332.901957       .036517                    
P 28 -14016.598194   4523.233963 -21582.970869     20.977270                    
V 28  -7151.849181 -27712.933591  -1395.043571       .020675                    
P 29  16716.239652   3584.481850  20396.160626    186.756466                    
V 29 -17745.215192  18653.754829  11348.488921       .029808                    
P 30   5881.020574 -19340.250426  16803.926781    323.252635                    
V 30   8956.126774  20343.866176  19835.054965       .028808                    
P 31  15773.811673  -9491.809881  19433.107761     43.736414                    
V 31  23150.877420   6780.187041 -15449.713500       .046438                    
P 32  -7704.709619 -25430.392469   3625.231030   -199.878585                    
V 32   1703.235094  -4621.264229 -30938.677844      -.077608                    
EOF
